{"fetched_at":"2026-03-30T13:17:50Z","count":15418,"tles":[{"name":"STARLINK-35127","line1":"1 65639U 25210T   26087.76432677  .00029438  00000+0  10029-2 0  9993","line2":"2 65639  53.1593 218.3260 0001125  88.7851 271.3279 15.30172570 30651","category":"Starlink"}]}