{
  "norad_id": 65639,
  "name": "STARLINK-35127",
  "history": [
    {
      "epoch": "2026-03-28T18:20:37.832928",
      "apogee_km": 476.068531275032,
      "perigee_km": 474.5254120819691,
      "latitude_deg": -15.089916945492956,
      "longitude_deg": 97.27536991983652,
      "semi_major_axis_km": 6853.433971678501,
      "eccentricity": 0.00011258,
      "inclination_deg": 53.1593,
      "raan_deg": 218.326,
      "arg_perigee_deg": 88.7851,
      "mean_anomaly_deg": 271.3279,
      "mean_motion_rev_day": 15.3017257
    }
  ]
}